{"type": "FeatureCollection", "features": [ {"type": "Feature", "properties": {"norad_id": 30252, "name": "FENGYUN 1C DEB", "group": "fengyun-1c-debris", "lat": -63.019639254744604, "lon": 30.623072863250766, "alt_km": 864.6782167441534, "timestamp": "2025-12-24T07:45:06.474573+00:00", "meta": {"OBJECT_NAME": "FENGYUN 1C DEB", "OBJECT_ID": "1999-025XM", "EPOCH": "2025-12-23T23:51:19.691424", "MEAN_MOTION": 14.09727856, "ECCENTRICITY": 0.00663109, "INCLINATION": 98.7428, "RA_OF_ASC_NODE": 12.7096, "ARG_OF_PERICENTER": 209.5501, "MEAN_ANOMALY": 216.5499, "EPHEMERIS_TYPE": 0, "CLASSIFICATION_TYPE": "U", "NORAD_CAT_ID": 30252, "ELEMENT_SET_NO": 999, "REV_AT_EPOCH": 97124, "BSTAR": 0.00045448596, "MEAN_MOTION_DOT": 7.71e-06, "MEAN_MOTION_DDOT": 0}, "tle": {"line1": "1 30252U 99025XM  25357.99397791  .00000771  00000+0  45449-3 0  9996", "line2": "2 30252  98.7428  12.7096 0066310 209.5501 216.5499 14.09727856971243"}}, "geometry": {"type": "Point", "coordinates": [30.623072863250766, -63.019639254744604]}}, {"type": "Feature", "properties": {"norad_id": 30253, "name": "FENGYUN 1C DEB", "group": "fengyun-1c-debris", "lat": 6.866139247025216, "lon": 84.34336528519447, "alt_km": 827.3975845676432, "timestamp": "2025-12-24T07:45:06.474582+00:00", "meta": {"OBJECT_NAME": "FENGYUN 1C DEB", "OBJECT_ID": "1999-025XN", "EPOCH": "2025-12-23T05:44:54.699072", "MEAN_MOTION": 13.7322202, "ECCENTRICITY": 0.02209148, "INCLINATION": 98.7512, "RA_OF_ASC_NODE": 84.4144, "ARG_OF_PERICENTER": 13.0534, "MEAN_ANOMALY": 40.7804, "EPHEMERIS_TYPE": 0, "CLASSIFICATION_TYPE": "U", "NORAD_CAT_ID": 30253, "ELEMENT_SET_NO": 999, "REV_AT_EPOCH": 94158, "BSTAR": 0.0019201119, "MEAN_MOTION_DOT": 2.082e-05, "MEAN_MOTION_DDOT": 0}, "tle": {"line1": "1 30253U 99025XN  25357.23952198  .00002082  00000+0  19201-2 0  9995", "line2": "2 30253  98.7512  84.4144 0220914  13.0534  40.7804 13.73222020941588"}}, "geometry": {"type": "Point", "coordinates": [84.34336528519447, 6.866139247025216]}}, {"type": "Feature", "properties": {"norad_id": 30257, "name": "FENGYUN 1C DEB", "group": "fengyun-1c-debris", "lat": -64.23216842955216, "lon": 15.167944342254614, "alt_km": 896.5926410997554, "timestamp": "2025-12-24T07:45:06.474592+00:00", "meta": {"OBJECT_NAME": "FENGYUN 1C DEB", "OBJECT_ID": "1999-025XS", "EPOCH": "2025-12-23T23:38:27.524256", "MEAN_MOTION": 14.09729761, "ECCENTRICITY": 0.00596231, "INCLINATION": 98.7497, "RA_OF_ASC_NODE": 356.2349, "ARG_OF_PERICENTER": 68.0147, "MEAN_ANOMALY": 312.7192, "EPHEMERIS_TYPE": 0, "CLASSIFICATION_TYPE": "U", "NORAD_CAT_ID": 30257, "ELEMENT_SET_NO": 999, "REV_AT_EPOCH": 97376, "BSTAR": 0.00012711761, "MEAN_MOTION_DOT": 1.84e-06, "MEAN_MOTION_DDOT": 0}, "tle": {"line1": "1 30257U 99025XS  25357.98504079  .00000184  00000+0  12712-3 0  9994", "line2": "2 30257  98.7497 356.2349 0059623  68.0147 312.7192 14.09729761973769"}}, "geometry": {"type": "Point", "coordinates": [15.167944342254614, -64.23216842955216]}}, {"type": "Feature", "properties": {"norad_id": 30259, "name": "FENGYUN 1C DEB", "group": "fengyun-1c-debris", "lat": -73.45352735344828, "lon": -118.18638730560842, "alt_km": 617.3764288517013, "timestamp": "2025-12-24T07:45:06.474602+00:00", "meta": {"OBJECT_NAME": "FENGYUN 1C DEB", "OBJECT_ID": "1999-025XU", "EPOCH": "2025-12-23T04:33:45.591264", "MEAN_MOTION": 14.51555251, "ECCENTRICITY": 0.02420249, "INCLINATION": 98.7606, "RA_OF_ASC_NODE": 209.364, "ARG_OF_PERICENTER": 236.4884, "MEAN_ANOMALY": 248.942, "EPHEMERIS_TYPE": 0, "CLASSIFICATION_TYPE": "U", "NORAD_CAT_ID": 30259, "ELEMENT_SET_NO": 999, "REV_AT_EPOCH": 99626, "BSTAR": 0.00044401053, "MEAN_MOTION_DOT": 2.539e-05, "MEAN_MOTION_DDOT": 0}, "tle": {"line1": "1 30259U 99025XU  25357.19011101  .00002539  00000+0  44401-3 0  9994", "line2": "2 30259  98.7606 209.3640 0242024 236.4884 248.9420 14.51555251996265"}}, "geometry": {"type": "Point", "coordinates": [-118.18638730560842, -73.45352735344828]}}, {"type": "Feature", "properties": {"norad_id": 30263, "name": "FENGYUN 1C DEB", "group": "fengyun-1c-debris", "lat": 55.24177548467947, "lon": -53.63151738602464, "alt_km": 978.5705622933156, "timestamp": "2025-12-24T07:45:06.474615+00:00", "meta": {"OBJECT_NAME": "FENGYUN 1C DEB", "OBJECT_ID": "1999-025XY", "EPOCH": "2025-12-20T07:28:46.628256", "MEAN_MOTION": 14.01494898, "ECCENTRICITY": 0.01444826, "INCLINATION": 98.9351, "RA_OF_ASC_NODE": 109.3367, "ARG_OF_PERICENTER": 339.2977, "MEAN_ANOMALY": 76.0019, "EPHEMERIS_TYPE": 0, "CLASSIFICATION_TYPE": "U", "NORAD_CAT_ID": 30263, "ELEMENT_SET_NO": 999, "REV_AT_EPOCH": 96131, "BSTAR": 0.00070985244, "MEAN_MOTION_DOT": 1.131e-05, "MEAN_MOTION_DDOT": 0}, "tle": {"line1": "1 30263U 99025XY  25354.31165079  .00001131  00000+0  70985-3 0  9997", "line2": "2 30263  98.9351 109.3367 0144482 339.2977  76.0019 14.01494898961314"}}, "geometry": {"type": "Point", "coordinates": [-53.63151738602464, 55.24177548467947]}}, {"type": "Feature", "properties": {"norad_id": 30264, "name": "FENGYUN 1C DEB", "group": "fengyun-1c-debris", "lat": -27.662538067661256, "lon": -131.3770692082193, "alt_km": 819.1245967006362, "timestamp": "2025-12-24T07:45:06.474624+00:00", "meta": {"OBJECT_NAME": "FENGYUN 1C DEB", "OBJECT_ID": "1999-025XZ", "EPOCH": "2025-12-22T10:28:44.483808", "MEAN_MOTION": 14.07676846, "ECCENTRICITY": 0.01079727, "INCLINATION": 98.9696, "RA_OF_ASC_NODE": 51.4986, "ARG_OF_PERICENTER": 260.1244, "MEAN_ANOMALY": 114.5431, "EPHEMERIS_TYPE": 0, "CLASSIFICATION_TYPE": "U", "NORAD_CAT_ID": 30264, "ELEMENT_SET_NO": 999, "REV_AT_EPOCH": 96694, "BSTAR": 0.001164435, "MEAN_MOTION_DOT": 2.031e-05, "MEAN_MOTION_DDOT": 0}, "tle": {"line1": "1 30264U 99025XZ  25356.43662597  .00002031  00000+0  11644-2 0  9996", "line2": "2 30264  98.9696  51.4986 0107972 260.1244 114.5431 14.07676846966944"}}, "geometry": {"type": "Point", "coordinates": [-131.3770692082193, -27.662538067661256]}}, {"type": "Feature", "properties": {"norad_id": 30265, "name": "FENGYUN 1C DEB", "group": "fengyun-1c-debris", "lat": -15.162564915256027, "lon": -74.42689599074593, "alt_km": 717.0506968538157, "timestamp": "2025-12-24T07:45:06.474634+00:00", "meta": {"OBJECT_NAME": "FENGYUN 1C DEB", "OBJECT_ID": "1999-025YA", "EPOCH": "2025-12-23T06:18:42.621984", "MEAN_MOTION": 14.58813091, "ECCENTRICITY": 0.00279256, "INCLINATION": 98.6635, "RA_OF_ASC_NODE": 106.8362, "ARG_OF_PERICENTER": 339.7996, "MEAN_ANOMALY": 52.0146, "EPHEMERIS_TYPE": 0, "CLASSIFICATION_TYPE": "U", "NORAD_CAT_ID": 30265, "ELEMENT_SET_NO": 999, "REV_AT_EPOCH": 98555, "BSTAR": 0.0023069989, "MEAN_MOTION_DOT": 0.00010809, "MEAN_MOTION_DDOT": 0}, "tle": {"line1": "1 30265U 99025YA  25357.26299331  .00010809  00000+0  23070-2 0  9999", "line2": "2 30265  98.6635 106.8362 0027925 339.7996  52.0146 14.58813091985552"}}, "geometry": {"type": "Point", "coordinates": [-74.42689599074593, -15.162564915256027]}}, {"type": "Feature", "properties": {"norad_id": 30266, "name": "FENGYUN 1C DEB", "group": "fengyun-1c-debris", "lat": -12.945929369993115, "lon": -119.40751079341098, "alt_km": 901.7810873461958, "timestamp": "2025-12-24T07:45:06.474644+00:00", "meta": {"OBJECT_NAME": "FENGYUN 1C DEB", "OBJECT_ID": "1999-025YB", "EPOCH": "2025-12-23T00:51:30.472704", "MEAN_MOTION": 14.15128036, "ECCENTRICITY": 0.00818909, "INCLINATION": 99.0416, "RA_OF_ASC_NODE": 61.3859, "ARG_OF_PERICENTER": 36.6559, "MEAN_ANOMALY": 81.9418, "EPHEMERIS_TYPE": 0, "CLASSIFICATION_TYPE": "U", "NORAD_CAT_ID": 30266, "ELEMENT_SET_NO": 999, "REV_AT_EPOCH": 96935, "BSTAR": 0.0011222485, "MEAN_MOTION_DOT": 2.204e-05, "MEAN_MOTION_DDOT": 0}, "tle": {"line1": "1 30266U 99025YB  25357.03576936  .00002204  00000+0  11222-2 0  9990", "line2": "2 30266  99.0416  61.3859 0081890  36.6559  81.9418 14.15128036969354"}}, "geometry": {"type": "Point", "coordinates": [-119.40751079341098, -12.945929369993115]}}, {"type": "Feature", "properties": {"norad_id": 30267, "name": "FENGYUN 1C DEB", "group": "fengyun-1c-debris", "lat": 75.62844383987249, "lon": -73.00056814150874, "alt_km": 819.4247186283055, "timestamp": "2025-12-24T07:45:06.474655+00:00", "meta": {"OBJECT_NAME": "FENGYUN 1C DEB", "OBJECT_ID": "1999-025YC", "EPOCH": "2025-12-23T04:17:06.301824", "MEAN_MOTION": 14.23672824, "ECCENTRICITY": 0.00598424, "INCLINATION": 98.849, "RA_OF_ASC_NODE": 68.4041, "ARG_OF_PERICENTER": 213.523, "MEAN_ANOMALY": 146.2155, "EPHEMERIS_TYPE": 0, "CLASSIFICATION_TYPE": "U", "NORAD_CAT_ID": 30267, "ELEMENT_SET_NO": 999, "REV_AT_EPOCH": 97443, "BSTAR": 0.0014937482, "MEAN_MOTION_DOT": 3.427e-05, "MEAN_MOTION_DDOT": 0}, "tle": {"line1": "1 30267U 99025YC  25357.17854516  .00003427  00000+0  14937-2 0  9993", "line2": "2 30267  98.8490  68.4041 0059842 213.5230 146.2155 14.23672824974435"}}, "geometry": {"type": "Point", "coordinates": [-73.00056814150874, 75.62844383987249]}}, {"type": "Feature", "properties": {"norad_id": 30270, "name": "FENGYUN 1C DEB", "group": "fengyun-1c-debris", "lat": -62.91844781865462, "lon": 29.116772929235587, "alt_km": 867.7237566711501, "timestamp": "2025-12-24T07:45:06.474665+00:00", "meta": {"OBJECT_NAME": "FENGYUN 1C DEB", "OBJECT_ID": "1999-025YF", "EPOCH": "2025-12-23T22:10:02.292960", "MEAN_MOTION": 14.11275935, "ECCENTRICITY": 0.00078849, "INCLINATION": 98.7017, "RA_OF_ASC_NODE": 11.3012, "ARG_OF_PERICENTER": 129.8762, "MEAN_ANOMALY": 298.0825, "EPHEMERIS_TYPE": 0, "CLASSIFICATION_TYPE": "U", "NORAD_CAT_ID": 30270, "ELEMENT_SET_NO": 999, "REV_AT_EPOCH": 97519, "BSTAR": 0.00012498098, "MEAN_MOTION_DOT": 1.83e-06, "MEAN_MOTION_DDOT": 0}, "tle": {"line1": "1 30270U 99025YF  25357.92363765  .00000183  00000+0  12498-3 0  9998", "line2": "2 30270  98.7017  11.3012 0007884 129.8762 298.0825 14.11275935975199"}}, "geometry": {"type": "Point", "coordinates": [29.116772929235587, -62.91844781865462]}}]}